{
"type": "FeatureCollection",
"name": "parcels",
"crs": { "type": "name", "properties": { "name": "urn:ogc:def:crs:OGC:1.3:CRS84" } },
"features": [
{ "type": "Feature", "properties": { "Cultivo": "Cebada", "ID_POLIGONO": "AGC_020", "area_ha": 8.34, "Municipio": "Emiliano Zapata", "Estado": "Hidalgo", "CONJUNTO": "ENTRENAMIENTO" }, "geometry": { "type": "Polygon", "coordinates": [ [ [ -98.584938, 19.627802, 0.0 ], [ -98.586565, 19.625947, 0.0 ], [ -98.587973, 19.62675, 0.0 ], [ -98.587097, 19.628421, 0.0 ], [ -98.585562, 19.629825, 0.0 ], [ -98.584216, 19.629167, 0.0 ], [ -98.584938, 19.627802, 0.0 ] ] ] } },
{ "type": "Feature", "properties": { "Cultivo": "Cebada", "ID_POLIGONO": "AGC_048", "area_ha": 8.29, "Municipio": "Nanacamilpa de Mariano Arista", "Estado": "Tlaxcala", "CONJUNTO": "ENTRENAMIENTO" }, "geometry": { "type": "Polygon", "coordinates": [ [ [ -98.517457, 19.549211, 0.0 ], [ -98.517688, 19.548936, 0.0 ], [ -98.517589, 19.548643, 0.0 ], [ -98.517735, 19.54843, 0.0 ], [ -98.518121, 19.548501, 0.0 ], [ -98.518441, 19.548608, 0.0 ], [ -98.518677, 19.548865, 0.0 ], [ -98.518601, 19.549407, 0.0 ], [ -98.51862, 19.54985, 0.0 ], [ -98.518602, 19.550155, 0.0 ], [ -98.518716, 19.550845, 0.0 ], [ -98.518785, 19.551443, 0.0 ], [ -98.518392, 19.551648, 0.0 ], [ -98.518164, 19.551877, 0.0 ], [ -98.517833, 19.552255, 0.0 ], [ -98.517467, 19.552629, 0.0 ], [ -98.517442, 19.552718, 0.0 ], [ -98.517502, 19.552976, 0.0 ], [ -98.517401, 19.553127, 0.0 ], [ -98.517115, 19.553372, 0.0 ], [ -98.516663, 19.553644, 0.0 ], [ -98.51616, 19.553756, 0.0 ], [ -98.515568, 19.554035, 0.0 ], [ -98.515004, 19.554409, 0.0 ], [ -98.515122, 19.553987, 0.0 ], [ -98.515202, 19.553788, 0.0 ], [ -98.515207, 19.553524, 0.0 ], [ -98.515259, 19.553367, 0.0 ], [ -98.515495, 19.553187, 0.0 ], [ -98.51577, 19.553, 0.0 ], [ -98.516058, 19.552753, 0.0 ], [ -98.516203, 19.552525, 0.0 ], [ -98.516394, 19.552454, 0.0 ], [ -98.516748, 19.552415, 0.0 ], [ -98.517008, 19.551929, 0.0 ], [ -98.517271, 19.551565, 0.0 ], [ -98.517251, 19.551134, 0.0 ], [ -98.517307, 19.550348, 0.0 ], [ -98.517434, 19.549859, 0.0 ], [ -98.517344, 19.549593, 0.0 ], [ -98.517457, 19.549211, 0.0 ] ] ] } },
{ "type": "Feature", "properties": { "Cultivo": "Cebada", "ID_POLIGONO": "AGC_050", "area_ha": 2.42, "Municipio": "Calpulalpan", "Estado": "Tlaxcala", "CONJUNTO": "PREDICCION" }, "geometry": { "type": "Polygon", "coordinates": [ [ [ -98.590311, 19.579587, 0.0 ], [ -98.590884, 19.581961, 0.0 ], [ -98.5905, 19.581991, 0.0 ], [ -98.589112, 19.581486, 0.0 ], [ -98.590311, 19.579587, 0.0 ] ] ] } },
{ "type": "Feature", "properties": { "Cultivo": "Cebada", "ID_POLIGONO": "AGC_054", "area_ha": 2.01, "Municipio": "Calpulalpan", "Estado": "Tlaxcala", "CONJUNTO": "ENTRENAMIENTO" }, "geometry": { "type": "Polygon", "coordinates": [ [ [ -98.537138, 19.547155, 0.0 ], [ -98.537864, 19.547383, 0.0 ], [ -98.537624, 19.547663, 0.0 ], [ -98.537471, 19.547876, 0.0 ], [ -98.537272, 19.548176, 0.0 ], [ -98.537113, 19.548507, 0.0 ], [ -98.536993, 19.548934, 0.0 ], [ -98.536383, 19.548797, 0.0 ], [ -98.535623, 19.548599, 0.0 ], [ -98.536066, 19.548191, 0.0 ], [ -98.536528, 19.547799, 0.0 ], [ -98.537138, 19.547155, 0.0 ] ] ] } },
{ "type": "Feature", "properties": { "Cultivo": "CEBADA", "ID_POLIGONO": "AGC_065", "area_ha": 60.88, "Municipio": "Almoloya", "Estado": "Hidalgo", "CONJUNTO": "PREDICCION" }, "geometry": { "type": "Polygon", "coordinates": [ [ [ -98.342012634356394, 19.774461710801699, 0.0 ], [ -98.337013575898297, 19.764291355037201, 0.0 ], [ -98.338336585826994, 19.763646914795402, 0.0 ], [ -98.338366707860303, 19.7635791637497, 0.0 ], [ -98.338896442543302, 19.7632878570865, 0.0 ], [ -98.339137656294298, 19.763790703069599, 0.0 ], [ -98.338982153093497, 19.7632480080206, 0.0 ], [ -98.339313614211605, 19.763012241351898, 0.0 ], [ -98.339871664405905, 19.7626986172735, 0.0 ], [ -98.340768387947307, 19.762161147364399, 0.0 ], [ -98.3419473854605, 19.761449068737502, 0.0 ], [ -98.342354510359499, 19.761708670625602, 0.0 ], [ -98.342394167944505, 19.762006845225098, 0.0 ], [ -98.342527081191193, 19.762244910620399, 0.0 ], [ -98.3425718682916, 19.7623997308119, 0.0 ], [ -98.342708928873293, 19.762489925175998, 0.0 ], [ -98.342817633112006, 19.7626501330537, 0.0 ], [ -98.342854384320603, 19.762780815395399, 0.0 ], [ -98.342798430231397, 19.762876875751299, 0.0 ], [ -98.342926130664495, 19.762998707761302, 0.0 ], [ -98.343119332342198, 19.7632737109858, 0.0 ], [ -98.343420006461002, 19.763634222132499, 0.0 ], [ -98.343677053588294, 19.763946042886801, 0.0 ], [ -98.343899800943007, 19.764176739525801, 0.0 ], [ -98.343984721438403, 19.7643490551079, 0.0 ], [ -98.343987273901107, 19.764412870639902, 0.0 ], [ -98.344016875637905, 19.764461321300001, 0.0 ], [ -98.344046348278198, 19.764551280208501, 0.0 ], [ -98.344035766612095, 19.7646489908308, 0.0 ], [ -98.343993713432198, 19.7648281503531, 0.0 ], [ -98.343980499824596, 19.7648857492864, 0.0 ], [ -98.3439577944539, 19.765010152187099, 0.0 ], [ -98.343947500437906, 19.7650618567619, 0.0 ], [ -98.343950277806499, 19.765142282216299, 0.0 ], [ -98.343994055985306, 19.7651762909958, 0.0 ], [ -98.344045674424095, 19.7652149927431, 0.0 ], [ -98.3440640282424, 19.765289899989298, 0.0 ], [ -98.344180335188497, 19.7653576515584, 0.0 ], [ -98.344226106349396, 19.765408230229699, 0.0 ], [ -98.344260539139597, 19.765557752984702, 0.0 ], [ -98.344248643884498, 19.765654086, 0.0 ], [ -98.344268166317406, 19.765829547734999, 0.0 ], [ -98.344331255834703, 19.766332359448999, 0.0 ], [ -98.344362080234106, 19.766620038921101, 0.0 ], [ -98.344334210380893, 19.766724758715799, 0.0 ], [ -98.344274194417906, 19.766741146111201, 0.0 ], [ -98.344170651320596, 19.7667649575762, 0.0 ], [ -98.344107029198796, 19.766743876448299, 0.0 ], [ -98.344112234043806, 19.766803357072799, 0.0 ], [ -98.344095190608599, 19.766828388267001, 0.0 ], [ -98.344168799420899, 19.766915910837898, 0.0 ], [ -98.344318672977806, 19.767002618979301, 0.0 ], [ -98.344356830565701, 19.767042517016399, 0.0 ], [ -98.344362864331003, 19.767091607381801, 0.0 ], [ -98.344321360574696, 19.767370894802301, 0.0 ], [ -98.344268385751107, 19.7676710479405, 0.0 ], [ -98.344201040474104, 19.768287995661598, 0.0 ], [ -98.344137641922202, 19.7686238038157, 0.0 ], [ -98.344090215522399, 19.769015602237399, 0.0 ], [ -98.344035197258506, 19.769369422822699, 0.0 ], [ -98.344001573671306, 19.7695532604988, 0.0 ], [ -98.343981883563998, 19.769790915566801, 0.0 ], [ -98.343918757342195, 19.769823961784201, 0.0 ], [ -98.343903946466298, 19.769865555485001, 0.0 ], [ -98.343873619549896, 19.7699169825888, 0.0 ], [ -98.343827372730004, 19.769963530772799, 0.0 ], [ -98.343828166799398, 19.769993957650701, 0.0 ], [ -98.343838106539593, 19.7700384296989, 0.0 ], [ -98.343844732280601, 19.7700680719751, 0.0 ], [ -98.343835781429206, 19.770135859790798, 0.0 ], [ -98.343891602479005, 19.770196110733998, 0.0 ], [ -98.343855830350293, 19.770291803406, 0.0 ], [ -98.343764559093003, 19.770310166360598, 0.0 ], [ -98.343691550332807, 19.770335914027601, 0.0 ], [ -98.3436520411245, 19.770387746428, 0.0 ], [ -98.3436132239068, 19.7704453066093, 0.0 ], [ -98.343589721658105, 19.770500517085399, 0.0 ], [ -98.343492425940795, 19.770511079489101, 0.0 ], [ -98.343416029346599, 19.770563994384801, 0.0 ], [ -98.343389995586506, 19.770604849492099, 0.0 ], [ -98.343403877923393, 19.770767733852999, 0.0 ], [ -98.343398096903101, 19.7709391050176, 0.0 ], [ -98.343309883418897, 19.771074301992499, 0.0 ], [ -98.343146937442796, 19.771162915155401, 0.0 ], [ -98.342956516419704, 19.771321184038101, 0.0 ], [ -98.342764843352299, 19.771622515805799, 0.0 ], [ -98.342464384231207, 19.771928692187601, 0.0 ], [ -98.342376906588498, 19.772009803568, 0.0 ], [ -98.342164345917993, 19.772148113389701, 0.0 ], [ -98.342088332755907, 19.772202153019599, 0.0 ], [ -98.342177833012798, 19.7722107965639, 0.0 ], [ -98.342351814264006, 19.772139720788999, 0.0 ], [ -98.3424039814157, 19.772067198754701, 0.0 ], [ -98.342647947238405, 19.771851478792101, 0.0 ], [ -98.342794907543393, 19.771732024383301, 0.0 ], [ -98.342914652811601, 19.771760029628599, 0.0 ], [ -98.342988000298206, 19.771720830702201, 0.0 ], [ -98.342992810895893, 19.771547876468698, 0.0 ], [ -98.343056553745697, 19.7714460386734, 0.0 ], [ -98.343040472081398, 19.771356505726299, 0.0 ], [ -98.343124177104897, 19.7712708895993, 0.0 ], [ -98.343232654017996, 19.771326057915701, 0.0 ], [ -98.343322353323103, 19.7713721990811, 0.0 ], [ -98.343347654278006, 19.771394820351301, 0.0 ], [ -98.343361014018797, 19.7716058689142, 0.0 ], [ -98.343345248616103, 19.7716694580146, 0.0 ], [ -98.343326841656193, 19.771860846729901, 0.0 ], [ -98.343298579595, 19.7719967750192, 0.0 ], [ -98.343229474625502, 19.772105796918702, 0.0 ], [ -98.343184418418105, 19.7722332693277, 0.0 ], [ -98.343040707839094, 19.772607107338899, 0.0 ], [ -98.342962782964307, 19.772769846732199, 0.0 ], [ -98.342935716443606, 19.7728573482065, 0.0 ], [ -98.342938795681803, 19.7729169528805, 0.0 ], [ -98.342982713418806, 19.773087165415198, 0.0 ], [ -98.342952393910494, 19.773223769009402, 0.0 ], [ -98.342891949218497, 19.773414948766, 0.0 ], [ -98.342854698552102, 19.773546973268399, 0.0 ], [ -98.342866457472397, 19.7738069863804, 0.0 ], [ -98.342801190226098, 19.7741644401919, 0.0 ], [ -98.342739781539606, 19.7744782760935, 0.0 ], [ -98.342626323842296, 19.774771413760998, 0.0 ], [ -98.342511737638702, 19.774837258346398, 0.0 ], [ -98.342346955272703, 19.774807604091301, 0.0 ], [ -98.3421424484563, 19.774710646451702, 0.0 ], [ -98.342012634356394, 19.774461710801699, 0.0 ] ] ] } },
{ "type": "Feature", "properties": { "Cultivo": "CEBADA", "ID_POLIGONO": "AGC_076", "area_ha": 1.01, "Municipio": "Chignahuapan", "Estado": "Puebla", "CONJUNTO": "PREDICCION" }, "geometry": { "type": "Polygon", "coordinates": [ [ [ -98.266960177839593, 19.8814285408404, 0.0 ], [ -98.266958153935306, 19.8814793100758, 0.0 ], [ -98.266910916026106, 19.881507866813099, 0.0 ], [ -98.266834659838196, 19.881561808992601, 0.0 ], [ -98.266733435875395, 19.881656365312701, 0.0 ], [ -98.266606567706106, 19.8817166525297, 0.0 ], [ -98.2664236895789, 19.881755364235101, 0.0 ], [ -98.2663359619049, 19.881750921576401, 0.0 ], [ -98.266198971519003, 19.881698883579201, 0.0 ], [ -98.266101121628395, 19.8816608079741, 0.0 ], [ -98.266145378029094, 19.881627033100301, 0.0 ], [ -98.266182182006304, 19.881607805216198, 0.0 ], [ -98.266221915389707, 19.8815659720367, 0.0 ], [ -98.266234737942, 19.881558435811801, 0.0 ], [ -98.266242646709799, 19.881553787022799, 0.0 ], [ -98.266243326734497, 19.881553525143001, 0.0 ], [ -98.266374637971097, 19.881459319342799, 0.0 ], [ -98.266286066779102, 19.881322482775499, 0.0 ], [ -98.265998209731094, 19.8807156367718, 0.0 ], [ -98.265683992519399, 19.880126637826901, 0.0 ], [ -98.265614757563895, 19.8800051531747, 0.0 ], [ -98.265597530571696, 19.879974926032499, 0.0 ], [ -98.265660795323896, 19.8799283210917, 0.0 ], [ -98.265715624895506, 19.879970959780898, 0.0 ], [ -98.265730393198794, 19.879979318898901, 0.0 ], [ -98.265824230315104, 19.880032437936599, 0.0 ], [ -98.265912801507099, 19.880021530114799, 0.0 ], [ -98.266034059697404, 19.880035412413001, 0.0 ], [ -98.266131066968398, 19.8801276296001, 0.0 ], [ -98.266354603743693, 19.880543102585499, 0.0 ], [ -98.266545453520706, 19.880846525785898, 0.0 ], [ -98.266687800560604, 19.881104335577, 0.0 ], [ -98.266746847722601, 19.881157880849301, 0.0 ], [ -98.266882469974306, 19.88132994974, 0.0 ], [ -98.266960177839593, 19.8814285408404, 0.0 ] ] ] } },
{ "type": "Feature", "properties": { "Cultivo": "CEBADA", "ID_POLIGONO": "AGC_090", "area_ha": 10.98, "Municipio": "Chignahuapan", "Estado": "Puebla", "CONJUNTO": "ENTRENAMIENTO" }, "geometry": { "type": "Polygon", "coordinates": [ [ [ -98.289456715347598, 19.8543283497667, 0.0 ], [ -98.289453338580401, 19.854332937674901, 0.0 ], [ -98.289411401629707, 19.854389912218199, 0.0 ], [ -98.289322452246907, 19.8543835981434, 0.0 ], [ -98.289193224203402, 19.854533558408999, 0.0 ], [ -98.289001900115906, 19.8546898317509, 0.0 ], [ -98.288857567799198, 19.854956602157401, 0.0 ], [ -98.288765583008995, 19.855078114451999, 0.0 ], [ -98.288708200425305, 19.8551539167984, 0.0 ], [ -98.288414499836406, 19.8554049017621, 0.0 ], [ -98.287817030341003, 19.855919496836801, 0.0 ], [ -98.287458827121398, 19.8561910456696, 0.0 ], [ -98.287120542246697, 19.8564719741982, 0.0 ], [ -98.287031043993196, 19.8565306437016, 0.0 ], [ -98.287023740690003, 19.856535430944199, 0.0 ], [ -98.286955935852305, 19.856497167640399, 0.0 ], [ -98.286738967558406, 19.856209247537599, 0.0 ], [ -98.285151444126996, 19.8542806786037, 0.0 ], [ -98.285196245805196, 19.854254032393602, 0.0 ], [ -98.285224483447806, 19.854237237091699, 0.0 ], [ -98.286038652640997, 19.8536199692244, 0.0 ], [ -98.286601482200794, 19.853176463749602, 0.0 ], [ -98.286787453227504, 19.8530273057257, 0.0 ], [ -98.287505876384401, 19.852451092465198, 0.0 ], [ -98.287732512347404, 19.852271264507301, 0.0 ], [ -98.287792661742301, 19.852258130920799, 0.0 ], [ -98.287800607340898, 19.852262070827798, 0.0 ], [ -98.2878136697435, 19.8522685489034, 0.0 ], [ -98.2878517376503, 19.8522874288549, 0.0 ], [ -98.289387905295101, 19.854205224791801, 0.0 ], [ -98.289456715347598, 19.8543283497667, 0.0 ] ] ] } },
{ "type": "Feature", "properties": { "Cultivo": "CEBADA", "ID_POLIGONO": "AGC_108", "area_ha": 3.79, "Municipio": "Chignahuapan", "Estado": "Puebla", "CONJUNTO": "ENTRENAMIENTO" }, "geometry": { "type": "Polygon", "coordinates": [ [ [ -98.218589665527404, 19.889642715957699, 0.0 ], [ -98.218479251799195, 19.889767121897201, 0.0 ], [ -98.218332033195495, 19.889936426775201, 0.0 ], [ -98.217882419209303, 19.890339576503202, 0.0 ], [ -98.217353227963699, 19.890867130280199, 0.0 ], [ -98.217145330857406, 19.891090685464199, 0.0 ], [ -98.217089627224993, 19.8911860943339, 0.0 ], [ -98.217063763829699, 19.8912908559046, 0.0 ], [ -98.216962302711593, 19.891245022989899, 0.0 ], [ -98.216798173322601, 19.8911851583816, 0.0 ], [ -98.216705664814697, 19.891122488427101, 0.0 ], [ -98.216592452834405, 19.890936815764999, 0.0 ], [ -98.216484672068304, 19.890723732415999, 0.0 ], [ -98.216273831182903, 19.890306896556499, 0.0 ], [ -98.216165047896894, 19.890112640502299, 0.0 ], [ -98.216071736295106, 19.889946011913601, 0.0 ], [ -98.216059920754205, 19.889823792274601, 0.0 ], [ -98.216066439828197, 19.889775135003799, 0.0 ], [ -98.216174003201999, 19.889817662917299, 0.0 ], [ -98.216235933057703, 19.8898418002168, 0.0 ], [ -98.216244423035405, 19.889841288310802, 0.0 ], [ -98.216331273953699, 19.8898360526779, 0.0 ], [ -98.216402168097602, 19.889819577919098, 0.0 ], [ -98.216419280105498, 19.889808084529001, 0.0 ], [ -98.2164264109322, 19.889805973549699, 0.0 ], [ -98.2164607885598, 19.889795799626299, 0.0 ], [ -98.216494499637506, 19.889764884207999, 0.0 ], [ -98.216499759273503, 19.889773450612701, 0.0 ], [ -98.216873849198805, 19.889489583146698, 0.0 ], [ -98.217144212454897, 19.889273588592001, 0.0 ], [ -98.2175110152467, 19.888978356868702, 0.0 ], [ -98.217677457797393, 19.888879785672401, 0.0 ], [ -98.217876264851299, 19.888762048219998, 0.0 ], [ -98.218009488601197, 19.888795852827698, 0.0 ], [ -98.218072100278206, 19.8888117406023, 0.0 ], [ -98.218357895692606, 19.8889711073613, 0.0 ], [ -98.218462341912399, 19.888974848688299, 0.0 ], [ -98.218520035313105, 19.889273238028, 0.0 ], [ -98.218556548236194, 19.889455120641198, 0.0 ], [ -98.218556840188697, 19.889456573579299, 0.0 ], [ -98.218582607464299, 19.8896026884, 0.0 ], [ -98.218589665527404, 19.889642715957699, 0.0 ] ] ] } },
{ "type": "Feature", "properties": { "Cultivo": "CEBADA", "ID_POLIGONO": "AGC_119", "area_ha": 0.64, "Municipio": "Cuautepec de Hinojosa", "Estado": "Hidalgo", "CONJUNTO": "ENTRENAMIENTO" }, "geometry": { "type": "Polygon", "coordinates": [ [ [ -98.276121171910006, 19.926848184552501, 0.0 ], [ -98.276199047347006, 19.926490600530201, 0.0 ], [ -98.277101942054401, 19.926635689246901, 0.0 ], [ -98.2773577418521, 19.9266185835986, 0.0 ], [ -98.277746644529998, 19.926919936524701, 0.0 ], [ -98.277622362008998, 19.926951395756902, 0.0 ], [ -98.277423991752002, 19.926963177929899, 0.0 ], [ -98.277028389520098, 19.9269113771688, 0.0 ], [ -98.276898990850896, 19.926969549578601, 0.0 ], [ -98.276804438616395, 19.927031098522001, 0.0 ], [ -98.276698146769505, 19.926985551632399, 0.0 ], [ -98.276619534313298, 19.926997771430699, 0.0 ], [ -98.276619947576407, 19.927092820616, 0.0 ], [ -98.276482369009301, 19.927046254568801, 0.0 ], [ -98.276298414038394, 19.926959996342099, 0.0 ], [ -98.276186004420097, 19.9269402343728, 0.0 ], [ -98.276121171910006, 19.926848184552501, 0.0 ] ] ] } },
{ "type": "Feature", "properties": { "Cultivo": "CEBADA", "ID_POLIGONO": "AGC_129", "area_ha": 8.16, "Municipio": "Singuilucan", "Estado": "Hidalgo", "CONJUNTO": "PREDICCION" }, "geometry": { "type": "Polygon", "coordinates": [ [ [ -98.375837488141656, 19.975515651875121, 0.0 ], [ -98.375680093049425, 19.97577690565473, 0.0 ], [ -98.375559315563834, 19.975819265866573, 0.0 ], [ -98.375282993379258, 19.975925778333824, 0.0 ], [ -98.374664575162981, 19.976169548529015, 0.0 ], [ -98.374633319542838, 19.976443512255255, 0.0 ], [ -98.37468816147441, 19.976693678938375, 0.0 ], [ -98.374690109389832, 19.976748667690824, 0.0 ], [ -98.374760296329981, 19.976808519457254, 0.0 ], [ -98.374886746197021, 19.976937585770848, 0.0 ], [ -98.375051245506825, 19.976922126166727, 0.0 ], [ -98.373810254618164, 19.979225890874023, 0.0 ], [ -98.373638653471801, 19.978995554913208, 0.0 ], [ -98.373534090081506, 19.979070620416511, 0.0 ], [ -98.373394924686536, 19.978905697770664, 0.0 ], [ -98.37316875616014, 19.978926144792364, 0.0 ], [ -98.373038843593449, 19.978670949871734, 0.0 ], [ -98.373076981763347, 19.978523194483614, 0.0 ], [ -98.373034372604835, 19.977943665583165, 0.0 ], [ -98.37293256930505, 19.977660055907737, 0.0 ], [ -98.372818143815934, 19.977592681464568, 0.0 ], [ -98.372937881028079, 19.977333761341324, 0.0 ], [ -98.372778560733565, 19.9769001090052, 0.0 ], [ -98.372264696236186, 19.977068804799458, 0.0 ], [ -98.3721469, 19.9769014, 0.0 ], [ -98.372125748432182, 19.976768146816489, 0.0 ], [ -98.37322728946252, 19.976354954268917, 0.0 ], [ -98.373524630073234, 19.976229556659728, 0.0 ], [ -98.37376557492702, 19.975912128492819, 0.0 ], [ -98.374008725443446, 19.975639999267191, 0.0 ], [ -98.374235100240782, 19.97548381673305, 0.0 ], [ -98.374255157543033, 19.975245136397067, 0.0 ], [ -98.37423076474532, 19.975134669022644, 0.0 ], [ -98.374003911523118, 19.975180955807051, 0.0 ], [ -98.373855332773445, 19.975368084996997, 0.0 ], [ -98.37377390839282, 19.975472790575303, 0.0 ], [ -98.373706447643698, 19.975438858706148, 0.0 ], [ -98.373716735953394, 19.975309829099533, 0.0 ], [ -98.3737545268595, 19.975174993310088, 0.0 ], [ -98.37432198868845, 19.974535718680215, 0.0 ], [ -98.374339454284168, 19.974393933192193, 0.0 ], [ -98.374464683619024, 19.974312897816553, 0.0 ], [ -98.374394537060041, 19.974123771550421, 0.0 ], [ -98.37440386597045, 19.973774950963652, 0.0 ], [ -98.374797726075897, 19.973874858678524, 0.0 ], [ -98.375308044862223, 19.974093896584098, 0.0 ], [ -98.375388479311084, 19.974153992845011, 0.0 ], [ -98.375407422142956, 19.97421261949529, 0.0 ], [ -98.375418496321799, 19.974309840722647, 0.0 ], [ -98.375382089002727, 19.974392999658985, 0.0 ], [ -98.374917205874183, 19.975031498056435, 0.0 ], [ -98.374817492221155, 19.975181013387839, 0.0 ], [ -98.374769501442671, 19.975441649297228, 0.0 ], [ -98.374748235814494, 19.975725547308127, 0.0 ], [ -98.375016084592744, 19.975680239221774, 0.0 ], [ -98.37544332549534, 19.975554710845245, 0.0 ], [ -98.375771063035174, 19.975442963012945, 0.0 ], [ -98.375837488141656, 19.975515651875121, 0.0 ] ] ] } },
{ "type": "Feature", "properties": { "Cultivo": "Cebada", "ID_POLIGONO": "AGC_183", "area_ha": 7.85, "Municipio": "Calpulalpan", "Estado": "Tlaxcala", "CONJUNTO": "PREDICCION" }, "geometry": { "type": "Polygon", "coordinates": [ [ [ -98.551465, 19.575776, 0.0 ], [ -98.547727, 19.57514, 0.0 ], [ -98.548222, 19.573393, 0.0 ], [ -98.551961, 19.574084, 0.0 ], [ -98.551465, 19.575776, 0.0 ] ] ] } },
{ "type": "Feature", "properties": { "Cultivo": "CEBADA", "ID_POLIGONO": "AGC_186", "area_ha": 11.7, "Municipio": "Chignahuapan", "Estado": "Puebla", "CONJUNTO": "PREDICCION" }, "geometry": { "type": "Polygon", "coordinates": [ [ [ -98.280346674574204, 19.853922887991398, 0.0 ], [ -98.280205507920599, 19.854006811419602, 0.0 ], [ -98.280135988199007, 19.8540530141936, 0.0 ], [ -98.279983811793301, 19.8541541485659, 0.0 ], [ -98.277534626138007, 19.855803069015, 0.0 ], [ -98.277484685198104, 19.855851997792399, 0.0 ], [ -98.277830494361694, 19.856270000682098, 0.0 ], [ -98.277990795130904, 19.856463766769, 0.0 ], [ -98.277911554739703, 19.8565420533244, 0.0 ], [ -98.275951013971493, 19.858231757528898, 0.0 ], [ -98.275641485067297, 19.8585049077072, 0.0 ], [ -98.275527397229496, 19.8585968518436, 0.0 ], [ -98.275517885867302, 19.858604516739302, 0.0 ], [ -98.275504295255402, 19.858615469969202, 0.0 ], [ -98.275436926999006, 19.858656257310201, 0.0 ], [ -98.275396561201703, 19.8586852448312, 0.0 ], [ -98.275367922910405, 19.8586634397677, 0.0 ], [ -98.275358587618001, 19.858646977821401, 0.0 ], [ -98.275358333394706, 19.8586472219963, 0.0 ], [ -98.275330208939806, 19.858597357936301, 0.0 ], [ -98.275323283827305, 19.858584997953301, 0.0 ], [ -98.274888797470496, 19.857777835496499, 0.0 ], [ -98.274898161509, 19.857723036098999, 0.0 ], [ -98.275140556617004, 19.857365103701699, 0.0 ], [ -98.276042641232095, 19.856033034982399, 0.0 ], [ -98.276697465463499, 19.855025521884802, 0.0 ], [ -98.276783431541205, 19.8549634425916, 0.0 ], [ -98.276868747238694, 19.855007479569998, 0.0 ], [ -98.276981113904398, 19.8548949419155, 0.0 ], [ -98.278084171411393, 19.853592802430999, 0.0 ], [ -98.278981622516199, 19.852548152770101, 0.0 ], [ -98.278999765790005, 19.852529707987699, 0.0 ], [ -98.279072182578304, 19.852456085993399, 0.0 ], [ -98.279094212862404, 19.852438587520499, 0.0 ], [ -98.279132110987604, 19.8524084869319, 0.0 ], [ -98.279218675343301, 19.852513079799099, 0.0 ], [ -98.280346674574204, 19.853922887991398, 0.0 ] ] ] } }
]
}
