{
"type": "FeatureCollection",
"name": "official_parcels__01__Parcelas_Reto_AGC_CONJUNTO_70_30",
"crs": { "type": "name", "properties": { "name": "urn:ogc:def:crs:OGC:1.3:CRS84" } },
"features": [
{ "type": "Feature", "properties": { "Cultivo": "Cebada", "ID_POLIGON": "AGC_196", "área_ha": 8.57, "Municipio": "Emiliano Zapata", "Estado": "Hidalgo", "CONJUNTO": "ENTRENAMIENTO" }, "geometry": { "type": "Polygon", "coordinates": [ [ [ -98.577391, 19.658024, 0.0 ], [ -98.577507, 19.656038, 0.0 ], [ -98.577443, 19.655521, 0.0 ], [ -98.579993, 19.65494, 0.0 ], [ -98.580992, 19.654946, 0.0 ], [ -98.580794, 19.656642, 0.0 ], [ -98.577391, 19.658024, 0.0 ] ] ] } },
{ "type": "Feature", "properties": { "Cultivo": "CEBADA", "ID_POLIGON": "AGC_166", "área_ha": 6.76, "Municipio": "Singuilucan", "Estado": "Hidalgo", "CONJUNTO": "ENTRENAMIENTO" }, "geometry": { "type": "Polygon", "coordinates": [ [ [ -98.397201824858413, 19.947570364689977, 0.0 ], [ -98.397030114282344, 19.947367299468688, 0.0 ], [ -98.396936218907413, 19.947128070554133, 0.0 ], [ -98.39631758583711, 19.946057652739412, 0.0 ], [ -98.39589981010954, 19.945659909174683, 0.0 ], [ -98.395744197717832, 19.945514011946713, 0.0 ], [ -98.395672617927517, 19.945292549196285, 0.0 ], [ -98.3954594, 19.9437581, 0.0 ], [ -98.396101393824736, 19.943561887627677, 0.0 ], [ -98.396319524528252, 19.943584307950015, 0.0 ], [ -98.396341583431507, 19.94378304795443, 0.0 ], [ -98.396960689743821, 19.943806378107553, 0.0 ], [ -98.3975464, 19.944128, 0.0 ], [ -98.3980083, 19.9452536, 0.0 ], [ -98.397201824858413, 19.947570364689977, 0.0 ] ] ] } },
{ "type": "Feature", "properties": { "Cultivo": "CEBADA", "ID_POLIGON": "AGC_085", "área_ha": 5.5, "Municipio": "Chignahuapan", "Estado": "Puebla", "CONJUNTO": "PREDICCION" }, "geometry": { "type": "Polygon", "coordinates": [ [ [ -98.253027924027194, 19.8511671100249, 0.0 ], [ -98.253021890941795, 19.851247127085902, 0.0 ], [ -98.252933198477095, 19.8516449422956, 0.0 ], [ -98.252302697928698, 19.854700877347, 0.0 ], [ -98.252200128289502, 19.854656613000898, 0.0 ], [ -98.252120486351401, 19.854627671214299, 0.0 ], [ -98.251971458540694, 19.854530631614502, 0.0 ], [ -98.251670575921096, 19.8542700495234, 0.0 ], [ -98.251478258296899, 19.854137044857801, 0.0 ], [ -98.251312336769004, 19.854048374737101, 0.0 ], [ -98.251152109661604, 19.853935338744101, 0.0 ], [ -98.251039886726403, 19.8538263811059, 0.0 ], [ -98.251051953795695, 19.8537526076273, 0.0 ], [ -98.251138026772907, 19.853299423072599, 0.0 ], [ -98.251277003333897, 19.852567687507499, 0.0 ], [ -98.251509848452201, 19.851215535805501, 0.0 ], [ -98.251538889188694, 19.851052777537401, 0.0 ], [ -98.251539356312605, 19.851052780072202, 0.0 ], [ -98.251541270622496, 19.851038287727501, 0.0 ], [ -98.251652287120194, 19.851035450431802, 0.0 ], [ -98.252248869080205, 19.8510568273161, 0.0 ], [ -98.252285804211397, 19.851058150486001, 0.0 ], [ -98.252636350191494, 19.851075175102, 0.0 ], [ -98.252988947923697, 19.8510889543175, 0.0 ], [ -98.252994272238396, 19.851090224256101, 0.0 ], [ -98.253016363607799, 19.851095491586399, 0.0 ], [ -98.253027924027194, 19.8511671100249, 0.0 ] ] ] } },
{ "type": "Feature", "properties": { "Cultivo": "CEBADA", "ID_POLIGON": "AGC_167", "área_ha": 2.46, "Municipio": "Chignahuapan", "Estado": "Puebla", "CONJUNTO": "ENTRENAMIENTO" }, "geometry": { "type": "Polygon", "coordinates": [ [ [ -98.240818413452601, 19.859588783600799, 0.0 ], [ -98.240817252829302, 19.859694666106201, 0.0 ], [ -98.240818413452601, 19.859843119983399, 0.0 ], [ -98.240811449712496, 19.860475139004201, 0.0 ], [ -98.240796361609, 19.860600669570701, 0.0 ], [ -98.240736010991597, 19.860623592151001, 0.0 ], [ -98.240336765543304, 19.8604260190186, 0.0 ], [ -98.240188209348204, 19.8603714402064, 0.0 ], [ -98.239980462260604, 19.860351792370199, 0.0 ], [ -98.239818794255598, 19.860315381978701, 0.0 ], [ -98.239788917187497, 19.860308653300301, 0.0 ], [ -98.239539342743697, 19.860231107879901, 0.0 ], [ -98.239390043641805, 19.860238792973899, 0.0 ], [ -98.239220689651205, 19.8602492721093, 0.0 ], [ -98.239244458175307, 19.860329611561198, 0.0 ], [ -98.239329135170607, 19.860318433709701, 0.0 ], [ -98.239599508308203, 19.860318433709701, 0.0 ], [ -98.239745835783197, 19.860360350226099, 0.0 ], [ -98.239755504350498, 19.860363538827901, 0.0 ], [ -98.239902563054102, 19.8604120462903, 0.0 ], [ -98.2400362638095, 19.8604923856597, 0.0 ], [ -98.2401952189024, 19.860596478094902, 0.0 ], [ -98.240366801613206, 19.860752965134498, 0.0 ], [ -98.240513872893203, 19.860989790292301, 0.0 ], [ -98.240533927781897, 19.861155359428899, 0.0 ], [ -98.240484904021898, 19.861188891959099, 0.0 ], [ -98.240421024822098, 19.861198672314199, 0.0 ], [ -98.240352689080098, 19.8611371953033, 0.0 ], [ -98.240181106369207, 19.860902465677, 0.0 ], [ -98.240008780751694, 19.8607410885934, 0.0 ], [ -98.2398891934278, 19.860722226545601, 0.0 ], [ -98.239721324352303, 19.8606621467897, 0.0 ], [ -98.239562369259403, 19.860572027113101, 0.0 ], [ -98.239432382139498, 19.860611148682199, 0.0 ], [ -98.239426461343399, 19.860613907232398, 0.0 ], [ -98.239268970504497, 19.860687296477401, 0.0 ], [ -98.239081789446999, 19.8608381945199, 0.0 ], [ -98.238936203980501, 19.8609164375173, 0.0 ], [ -98.238858211349196, 19.860924122578101, 0.0 ], [ -98.238832167392502, 19.860913017428501, 0.0 ], [ -98.238858333520099, 19.859980555530399, 0.0 ], [ -98.238908520368099, 19.860031461864398, 0.0 ], [ -98.238985838027801, 19.860065654340801, 0.0 ], [ -98.239054707069002, 19.860128741848399, 0.0 ], [ -98.2391181997167, 19.860197126751999, 0.0 ], [ -98.239186812739305, 19.860209647928301, 0.0 ], [ -98.239256449836802, 19.8602000162543, 0.0 ], [ -98.239307653584902, 19.860186531909701, 0.0 ], [ -98.239304581360003, 19.860121036505301, 0.0 ], [ -98.239271810961199, 19.8600834729524, 0.0 ], [ -98.239498192717207, 19.859410051108199, 0.0 ], [ -98.239533192877303, 19.859390089698099, 0.0 ], [ -98.239596304915906, 19.859354095617501, 0.0 ], [ -98.239668261766795, 19.859334446810401, 0.0 ], [ -98.239974659143897, 19.859268952458699, 0.0 ], [ -98.240061669962301, 19.859266155020102, 0.0 ], [ -98.240110449380595, 19.859264586055001, 0.0 ], [ -98.240201364277198, 19.859305217768899, 0.0 ], [ -98.240274093679204, 19.859337721611801, 0.0 ], [ -98.240343000749704, 19.859415668792401, 0.0 ], [ -98.240359977112007, 19.859434871486801, 0.0 ], [ -98.240447022066405, 19.859510190163601, 0.0 ], [ -98.240577009186296, 19.859570227266399, 0.0 ], [ -98.240716280394693, 19.8595636776733, 0.0 ], [ -98.240748114891701, 19.859554748022301, 0.0 ], [ -98.240782435027199, 19.859545120490999, 0.0 ], [ -98.240799621595201, 19.859565978310801, 0.0 ], [ -98.240801186460402, 19.859567877625299, 0.0 ], [ -98.240818413452601, 19.859588783600799, 0.0 ] ] ] } },
{ "type": "Feature", "properties": { "Cultivo": "CEBADA", "ID_POLIGON": "AGC_017", "área_ha": 1.6, "Municipio": "Chignahuapan", "Estado": "Puebla", "CONJUNTO": "ENTRENAMIENTO" }, "geometry": { "type": "Polygon", "coordinates": [ [ [ -98.241766484623696, 19.850090509000701, 0.0 ], [ -98.241776932030405, 19.850086999114801, 0.0 ], [ -98.241822172086401, 19.850071802000802, 0.0 ], [ -98.241885815029406, 19.8501511183131, 0.0 ], [ -98.241911822155203, 19.850217436865702, 0.0 ], [ -98.241921613791803, 19.8502424073918, 0.0 ], [ -98.241954589149202, 19.850258793320499, 0.0 ], [ -98.241963778016299, 19.850263358532999, 0.0 ], [ -98.242083108421994, 19.850307506657899, 0.0 ], [ -98.242098214491804, 19.850397677791602, 0.0 ], [ -98.242103792131402, 19.850430970942799, 0.0 ], [ -98.242129249488201, 19.850505049298601, 0.0 ], [ -98.2422469198073, 19.850541475460499, 0.0 ], [ -98.242254944457699, 19.850543959580602, 0.0 ], [ -98.242448259211898, 19.850692863922401, 0.0 ], [ -98.242550883648306, 19.8508327898213, 0.0 ], [ -98.242527813115203, 19.850894896078501, 0.0 ], [ -98.242488036612698, 19.850924078508001, 0.0 ], [ -98.242365523475897, 19.8508731964065, 0.0 ], [ -98.242286765480003, 19.850811838755298, 0.0 ], [ -98.242169821898003, 19.8508380275874, 0.0 ], [ -98.242057651065096, 19.850805104604198, 0.0 ], [ -98.241996867459804, 19.850735896609901, 0.0 ], [ -98.241966959848995, 19.8507018439234, 0.0 ], [ -98.241919227866404, 19.850662185064898, 0.0 ], [ -98.241876268632893, 19.8506666750664, 0.0 ], [ -98.241750573663396, 19.850736264157799, 0.0 ], [ -98.241734662703095, 19.850839524816202, 0.0 ], [ -98.241722430343799, 19.850863726351601, 0.0 ], [ -98.241711592169906, 19.850885168319198, 0.0 ], [ -98.2416734065838, 19.850917344361701, 0.0 ], [ -98.241597035411601, 19.8509562536976, 0.0 ], [ -98.241517550678694, 19.850959156899801, 0.0 ], [ -98.241515094684701, 19.850959247308001, 0.0 ], [ -98.241459407221896, 19.8509659814526, 0.0 ], [ -98.241340076816201, 19.8510123735328, 0.0 ], [ -98.241153921634805, 19.8511276067509, 0.0 ], [ -98.241019475277795, 19.8511882156672, 0.0 ], [ -98.240967460127905, 19.8511963701384, 0.0 ], [ -98.240962196898707, 19.851197194795301, 0.0 ], [ -98.240876279329896, 19.851168761028902, 0.0 ], [ -98.240807862739601, 19.8511657682674, 0.0 ], [ -98.240752971184193, 19.851176992390201, 0.0 ], [ -98.240659893144297, 19.851155291911699, 0.0 ], [ -98.240647959924104, 19.8510999207403, 0.0 ], [ -98.240693305082999, 19.851034821799299, 0.0 ], [ -98.240870709775194, 19.850954757314799, 0.0 ], [ -98.241003565215806, 19.850900133842501, 0.0 ], [ -98.241169831696794, 19.850804355989599, 0.0 ], [ -98.241203642487505, 19.8507805050942, 0.0 ], [ -98.2412493856, 19.8507482360809, 0.0 ], [ -98.241503609723793, 19.850621872214202, 0.0 ], [ -98.241646557736601, 19.850564583690701, 0.0 ], [ -98.241759672698905, 19.850528339196, 0.0 ], [ -98.241860357672607, 19.850440651413301, 0.0 ], [ -98.241891433093201, 19.8503880387204, 0.0 ], [ -98.241762158337295, 19.850472219189701, 0.0 ], [ -98.2416440711999, 19.850524831854599, 0.0 ], [ -98.241547115133002, 19.850576275107102, 0.0 ], [ -98.241373091699501, 19.850655778743501, 0.0 ], [ -98.241232579019396, 19.850734631738, 0.0 ], [ -98.241056120253205, 19.850851028636299, 0.0 ], [ -98.240865937026101, 19.850925855410001, 0.0 ], [ -98.240683212510802, 19.851011204985902, 0.0 ], [ -98.240561395568307, 19.8510626480806, 0.0 ], [ -98.240410989742003, 19.850966776537899, 0.0 ], [ -98.240163626950405, 19.850758665146898, 0.0 ], [ -98.240154925868595, 19.8507165754162, 0.0 ], [ -98.240575068825294, 19.850486249404401, 0.0 ], [ -98.240996455050393, 19.850278137383199, 0.0 ], [ -98.241344501917297, 19.8501109455928, 0.0 ], [ -98.241470047766398, 19.850043133983998, 0.0 ], [ -98.241565760564995, 19.850081716542, 0.0 ], [ -98.241656374526002, 19.850131800428102, 0.0 ], [ -98.241766484623696, 19.850090509000701, 0.0 ] ] ] } },
{ "type": "Feature", "properties": { "Cultivo": "CEBADA", "ID_POLIGON": "AGC_090", "área_ha": 10.98, "Municipio": "Chignahuapan", "Estado": "Puebla", "CONJUNTO": "ENTRENAMIENTO" }, "geometry": { "type": "Polygon", "coordinates": [ [ [ -98.289456715347598, 19.8543283497667, 0.0 ], [ -98.289453338580401, 19.854332937674901, 0.0 ], [ -98.289411401629707, 19.854389912218199, 0.0 ], [ -98.289322452246907, 19.8543835981434, 0.0 ], [ -98.289193224203402, 19.854533558408999, 0.0 ], [ -98.289001900115906, 19.8546898317509, 0.0 ], [ -98.288857567799198, 19.854956602157401, 0.0 ], [ -98.288765583008995, 19.855078114451999, 0.0 ], [ -98.288708200425305, 19.8551539167984, 0.0 ], [ -98.288414499836406, 19.8554049017621, 0.0 ], [ -98.287817030341003, 19.855919496836801, 0.0 ], [ -98.287458827121398, 19.8561910456696, 0.0 ], [ -98.287120542246697, 19.8564719741982, 0.0 ], [ -98.287031043993196, 19.8565306437016, 0.0 ], [ -98.287023740690003, 19.856535430944199, 0.0 ], [ -98.286955935852305, 19.856497167640399, 0.0 ], [ -98.286738967558406, 19.856209247537599, 0.0 ], [ -98.285151444126996, 19.8542806786037, 0.0 ], [ -98.285196245805196, 19.854254032393602, 0.0 ], [ -98.285224483447806, 19.854237237091699, 0.0 ], [ -98.286038652640997, 19.8536199692244, 0.0 ], [ -98.286601482200794, 19.853176463749602, 0.0 ], [ -98.286787453227504, 19.8530273057257, 0.0 ], [ -98.287505876384401, 19.852451092465198, 0.0 ], [ -98.287732512347404, 19.852271264507301, 0.0 ], [ -98.287792661742301, 19.852258130920799, 0.0 ], [ -98.287800607340898, 19.852262070827798, 0.0 ], [ -98.2878136697435, 19.8522685489034, 0.0 ], [ -98.2878517376503, 19.8522874288549, 0.0 ], [ -98.289387905295101, 19.854205224791801, 0.0 ], [ -98.289456715347598, 19.8543283497667, 0.0 ] ] ] } },
{ "type": "Feature", "properties": { "Cultivo": "Cebada", "ID_POLIGON": "AGC_093", "área_ha": 3.71, "Municipio": "Calpulalpan", "Estado": "Tlaxcala", "CONJUNTO": "PREDICCION" }, "geometry": { "type": "Polygon", "coordinates": [ [ [ -98.545629, 19.561135, 0.0 ], [ -98.547363, 19.561688, 0.0 ], [ -98.546913, 19.56336, 0.0 ], [ -98.545143, 19.562818, 0.0 ], [ -98.545629, 19.561135, 0.0 ] ] ] } },
{ "type": "Feature", "properties": { "Cultivo": "Cebada", "ID_POLIGON": "AGC_001", "área_ha": 7.61, "Municipio": "Calpulalpan", "Estado": "Tlaxcala", "CONJUNTO": "ENTRENAMIENTO" }, "geometry": { "type": "Polygon", "coordinates": [ [ [ -98.561779, 19.544309, 0.0 ], [ -98.560919, 19.543264, 0.0 ], [ -98.560582, 19.543116, 0.0 ], [ -98.561016, 19.541921, 0.0 ], [ -98.562065, 19.540172, 0.0 ], [ -98.563741, 19.540922, 0.0 ], [ -98.562099, 19.543969, 0.0 ], [ -98.561868, 19.544158, 0.0 ], [ -98.561779, 19.544309, 0.0 ] ] ] } }
]
}
